ADRAS-J                 
1 58992U 24034A   24148.41412976  .00004019  00000+0  37635-3 0  9999
2 58992  98.2119 120.4994 0046016 116.0193 244.5775 14.93874236 14761
